NORAD_CAT_ID,OBJECT_NAME,OBJECT_TYPE,EPOCH,MEAN_MOTION,ECCENTRICITY,INCLINATION,RA_OF_ASC_NODE,ARG_OF_PERICENTER,MEAN_ANOMALY,BSTAR,MEAN_MOTION_DOT,MEAN_MOTION_DDOT,TLE_LINE0,TLE_LINE1,TLE_LINE2,SEMIMAJOR_AXIS,PERIOD,APOGEE,PERIGEE,DECAYED
53034.0,STARLINK-4151,PAYLOAD,2022-10-18 14:00:01,15.27957113,0.0001155999999999,53.2174,232.8003,94.6848,236.5378,-0.0421589999999999,-0.01068085,0.0,0 STARLINK-4151,1 53034U 22076BA  22291.58334491 -.01068085  00000-0 -42159-1 0  9997,2 53034  53.2174 232.8003 0001156  94.6848 236.5378 15.27957113  1308,6860.057,94.243,482.715,481.129,0.0
53034.0,STARLINK-4151,PAYLOAD,2022-10-18 22:00:00,15.27205803,0.0001167,53.2164,231.2589,87.3321,277.9877,-0.043598,-0.01078453,0.0,0 STARLINK-4151,1 53034U 22076BA  22291.91667824 -.01078453  00000-0 -43598-1 0  9991,2 53034  53.2164 231.2589 0001167  87.3321 277.9877 15.27205803  1301,6862.307,94.29,484.973,483.371,0.0
53034.0,STARLINK-4151,PAYLOAD,2022-10-19 14:00:01,15.25676653,0.0001175,53.2174,228.1788,97.7097,333.0817,-0.045035,-0.01064559,0.0,0 STARLINK-4151,1 53034U 22076BA  22292.58334491 -.01064559  00000-0 -45035-1 0  9996,2 53034  53.2174 228.1788 0001175  97.7097 333.0817 15.25676653  1303,6866.891,94.384,489.56300000000016,487.949,0.0
53034.0,STARLINK-4151,PAYLOAD,2022-10-19 22:00:00,15.24917991,0.000129,53.2174,226.642,77.4846,24.6703,-0.0461279999999999,-0.01065596,0.0,0 STARLINK-4151,1 53034U 22076BA  22292.91667824 -.01065596  00000-0 -46128-1 0  9998,2 53034  53.2174 226.6420 0001290  77.4846  24.6703 15.24917991  1303,6869.169,94.431,491.92,490.148,0.0
53034.0,STARLINK-4151,PAYLOAD,2022-10-20 08:00:01,15.23968145,0.0001338,53.2171,224.7248,83.0867,146.989,-0.047398,-0.0106422,0.0,0 STARLINK-4151,1 53034U 22076BA  22293.33334491 -.01064220  00000-0 -47398-1 0  9999,2 53034  53.2171 224.7248 0001338  83.0867 146.9890 15.23968145 16921,6872.023,94.49,494.807,492.968,0.0
53034.0,STARLINK-4151,PAYLOAD,2022-10-20 14:00:01,15.23397285,0.0001339,53.2174,223.5735,82.7186,79.42699999999998,-0.04813,-0.0106249,0.0,0 STARLINK-4151,1 53034U 22076BA  22293.58334491 -.01062490  00000-0 -48130-1 0  9998,2 53034  53.2174 223.5735 0001339  82.7186  79.4270 15.23397285  1302,6873.739000000001,94.526,496.525,494.684,0.0
53034.0,STARLINK-4151,PAYLOAD,2022-10-20 22:00:00,15.22638271,0.0001395999999999,53.2175,222.0422,85.8554,104.9159,-0.049275,-0.01063346,0.0,0 STARLINK-4151,1 53034U 22076BA  22293.91667824 -.01063346  00000-0 -49275-1 0  9996,2 53034  53.2175 222.0422 0001396  85.8554 104.9159 15.22638271  1308,6876.023,94.573,498.848,496.929,0.0
53034.0,STARLINK-4151,PAYLOAD,2022-10-21 06:00:00,15.2187525,0.0001385999999999,53.2173,220.5139,79.0661,139.4189,-0.050079,-0.01057043,0.0,0 STARLINK-4151,1 53034U 22076BA  22294.25001157 -.01057043  00000-0 -50079-1 0  9996,2 53034  53.2173 220.5139 0001386  79.0661 139.4189 15.21875250 17062,6878.321999999999,94.62,501.14,499.233,0.0
53034.0,STARLINK-4151,PAYLOAD,2022-10-21 14:00:01,15.21118369,0.0001325,53.2174,218.984,87.4058,157.8801,-0.051445,-0.01061435,0.0,0 STARLINK-4151,1 53034U 22076BA  22294.58334491 -.01061435  00000-0 -51445-1 0  9990,2 53034  53.2174 218.9840 0001325  87.4058 157.8801 15.21118369  1305,6880.603,94.667,503.38,501.556,0.0
53034.0,STARLINK-4151,PAYLOAD,2022-10-21 22:00:00,15.20364905,0.0001293,53.2167,217.4591,87.0325,184.1377,-0.0530659999999999,-0.01070068,0.0,0 STARLINK-4151,1 53034U 22076BA  22294.91667824 -.01070068  00000-0 -53066-1 0  9999,2 53034  53.2167 217.4591 0001293  87.0325 184.1377 15.20364905  1300,6882.876,94.714,505.631,503.851,0.0
53034.0,STARLINK-4151,PAYLOAD,2022-10-22 14:00:01,15.18838789,0.0001187,53.2173,214.4109,88.5973,231.615,-0.054911,-0.01059836,0.0,0 STARLINK-4151,1 53034U 22076BA  22295.58334491 -.01059836  00000-0 -54911-1 0  9994,2 53034  53.2173 214.4109 0001187  88.5973 231.6150 15.18838789  1306,6887.486,94.809,510.168,508.533,0.0
53034.0,STARLINK-4151,PAYLOAD,2022-10-22 22:00:00,15.18091897,0.0001209,53.2167,212.8912,86.8946,256.4609,-0.057123,-0.01091103,0.0,0 STARLINK-4151,1 53034U 22076BA  22295.91667824 -.01091103  00000-0 -57123-1 0  9991,2 53034  53.2167 212.8912 0001209  86.8946 256.4609 15.18091897  1304,6889.745,94.856,512.443,510.777,0.0
53034.0,STARLINK-4151,PAYLOAD,2022-10-23 00:00:02,15.17891308,0.0001318,53.2171,212.5113,78.5152,0.5538,-0.056627,-0.01076517,0.0,0 STARLINK-4151,1 53034U 22076BA  22296.00002315 -.01076517  00000-0 -56627-1 0  9990,2 53034  53.2171 212.5113 0001318  78.5152   0.5538 15.17891308 17330,6890.352,94.868,513.125,511.309,0.0
53034.0,STARLINK-4151,PAYLOAD,2022-10-23 14:00:01,15.16559779,0.0001159,53.2173,209.8533,81.6437,305.281,-0.0586,-0.01072367,0.0,0 STARLINK-4151,1 53034U 22076BA  22296.58334491 -.01072367  00000-0 -58600-1 0  9998,2 53034  53.2173 209.8533 0001159  81.6437 305.2810 15.16559779  1301,6894.384,94.952,517.048,515.45,0.0
53034.0,STARLINK-4151,PAYLOAD,2022-10-23 22:00:00,15.15811243,0.0001261,53.2169,208.3394,87.1286,320.202,-0.060833,-0.01088359,0.0,0 STARLINK-4151,1 53034U 22076BA  22296.91667824 -.01088359  00000-0 -60833-1 0  9993,2 53034  53.2169 208.3394 0001261  87.1286 320.2020 15.15811243 17473,6896.654,94.999,519.388,517.649,0.0
53034.0,STARLINK-4151,PAYLOAD,2022-10-24 14:00:01,15.14281455,0.0001256,53.2174,205.3118,77.9927,7.4301,-0.062549,-0.01072578,0.0,0 STARLINK-4151,1 53034U 22076BA  22297.58334491 -.01072578  00000-0 -62549-1 0  9990,2 53034  53.2174 205.3118 0001256  77.9927   7.4301 15.14281455  1309,6901.2980000000025,95.095,524.03,522.2959999999998,0.0
53034.0,STARLINK-4151,PAYLOAD,2022-10-24 22:00:00,15.13537546,0.0001330999999999,53.217,203.8034,85.8569,17.2315,-0.065323,-0.01095031,0.0,0 STARLINK-4151,1 53034U 22076BA  22297.91667824 -.01095031  00000-0 -65323-1 0  9998,2 53034  53.2170 203.8034 0001331  85.8569  17.2315 15.13537546  1307,6903.559,95.141,526.3430000000002,524.505,0.0
53034.0,STARLINK-4151,PAYLOAD,2022-10-25 00:00:00,15.13331598,0.0001452,53.2173,203.426,88.445,108.9271,-0.064229,-0.0107225,0.0,0 STARLINK-4151,1 53034U 22076BA  22298.00001157 -.01072250  00000-0 -64229-1 0  9992,2 53034  53.2173 203.4260 0001452  88.4450 108.9271 15.13331598 17630,6904.185,95.154,527.053,525.048,0.0
53034.0,STARLINK-4151,PAYLOAD,2022-10-25 14:00:01,15.12003543,0.0001349,53.2174,200.7861,81.3596,54.3472,-0.0667529999999999,-0.01073441,0.0,0 STARLINK-4151,1 53034U 22076BA  22298.58334491 -.01073441  00000-0 -66753-1 0  9992,2 53034  53.2174 200.7861 0001349  81.3596  54.3472 15.12003543  1305,6908.228,95.238,531.024,529.161,0.0
53034.0,STARLINK-4151,PAYLOAD,2022-10-25 22:00:01,15.11254106,0.00014,53.2171,199.283,89.6117,61.0881,-0.069149,-0.01087786,0.0,0 STARLINK-4151,1 53034U 22076BA  22298.91668981 -.01087786  00000-0 -69149-1 0  9992,2 53034  53.2171 199.2830 0001400  89.6117  61.0881 15.11254106  1309,6910.511,95.285,533.344,531.409,0.0
53034.0,STARLINK-4151,PAYLOAD,2022-10-26 14:00:01,15.09620181,0.0001494,53.2174,196.2772,88.9383,88.8574,-0.051564,-0.00784594,0.0,0 STARLINK-4151,1 53034U 22076BA  22299.58334491 -.00784594  00000-0 -51564-1 0  9994,2 53034  53.2174 196.2772 0001494  88.9383  88.8574 15.09620181  1307,6915.496999999999,95.388,538.395,536.3290000000002,0.0
53034.0,STARLINK-4151,PAYLOAD,2022-10-26 22:00:00,15.08952117,0.0001501,53.2176,194.7802,83.2954,106.7077,-0.01145,-0.00178579,0.0,0 STARLINK-4151,1 53034U 22076BA  22299.91667824 -.00178579  00000-0 -11450-1 0  9990,2 53034  53.2176 194.7802 0001501  83.2954 106.7077 15.08952117  1301,6917.538000000001,95.43,540.441,538.364,0.0
53034.0,STARLINK-4151,PAYLOAD,2022-10-27 08:00:01,15.08884781,0.0001382,53.2131,192.9192,84.6751,209.8601,-0.0012409,-0.00020007,0.0,0 STARLINK-4151,1 53034U 22076BA  22300.33334491 -.00020007  00000-0 -12409-2 0  9998,2 53034  53.2131 192.9192 0001382  84.6751 209.8601 15.08884781 17992,6917.744000000002,95.435,540.565,538.6519999999998,0.0
53034.0,STARLINK-4151,PAYLOAD,2022-10-27 14:00:01,15.08873664,0.0001450999999999,53.213,191.7957,92.357,120.9698,-0.00067802,-0.00011072,0.0,0 STARLINK-4151,1 53034U 22076BA  22300.58335648 -.00011072  00000-0 -67802-3 0  9990,2 53034  53.2130 191.7957 0001451  92.3570 120.9698 15.08873664  1304,6917.776999999999,95.435,540.646,538.639,0.0
53034.0,STARLINK-4151,PAYLOAD,2022-10-27 22:00:00,15.08855281,0.0001588999999999,53.2129,190.3007,88.0505,136.8507,-0.0035699,-0.0005667999999999,0.0,0 STARLINK-4151,1 53034U 22076BA  22300.91667824 -.00056680  00000-0 -35699-2 0  9993,2 53034  53.2129 190.3007 0001589  88.0505 136.8507 15.08855281  1305,6917.834,95.437,540.798,538.599,0.0
53034.0,STARLINK-4151,PAYLOAD,2022-10-28 08:00:01,15.0882295,0.0001478,53.2124,188.4296,86.1402,243.314,-0.0014213,-0.00022826,0.0,0 STARLINK-4151,1 53034U 22076BA  22301.33335648 -.00022826  00000-0 -14213-2 0  9990,2 53034  53.2124 188.4296 0001478  86.1402 243.3140 15.08822950 18144,6917.933000000001,95.439,540.82,538.775,0.0
53034.0,STARLINK-4151,PAYLOAD,2022-10-28 14:00:01,15.08791664,0.0001492,53.2122,187.3063,92.848,155.2852,0.0032777,0.00052194,0.0,0 STARLINK-4151,1 53034U 22076BA  22301.58335648  .00052194  00000-0  32777-2 0  9991,2 53034  53.2122 187.3063 0001492  92.8480 155.2852 15.08791664  1306,6918.028,95.441,540.925,538.861,0.0
53034.0,STARLINK-4151,PAYLOAD,2022-10-28 22:00:01,15.08831082,0.000154,53.2121,185.8114,87.2314,172.4636,-0.00031072,-5.229e-05,0.0,0 STARLINK-4151,1 53034U 22076BA  22301.91668981 -.00005229  00000-0 -31072-3 0  9994,2 53034  53.2121 185.8114 0001540  87.2314 172.4636 15.08831082  1303,6917.908,95.438,540.8380000000002,538.707,0.0
53034.0,STARLINK-4151,PAYLOAD,2022-10-29 00:00:02,15.08823858,0.0001559,53.2122,185.4376,85.0441,267.5481,0.00088299,0.00013787,0.0,0 STARLINK-4151,1 53034U 22076BA  22302.00002315  .00013787  00000-0  88299-3 0  9997,2 53034  53.2122 185.4376 0001559  85.0441 267.5481 15.08823858 18244,6917.93,95.439,540.873,538.716,0.0
